FENGYUN 1C DEB          
1 35153U 99025DMH 17345.10354268  .00000323  00000-0  59366-4 0  9992
2 35153  98.9351 308.0739 0206706  72.3126 290.0522 14.60619975544456
